start=new Date('2022-06-18T00:00:00.000Z').valueOf();
sats=[{"CENTER_NAME":"EARTH","OBJECT_ID":"2021-027E","MEAN_MOTION":"15.06402469","PERIAPSIS":"546.032","MEAN_MOTION_DOT":"-0.00000463","DECAY_DATE":null,"EPHEMERIS_TYPE":"0","MEAN_ANOMALY":"303.1451","REV_AT_EPOCH":"6698","REF_FRAME":"TEME","SEMIMAJOR_AXIS":"6925.341","COUNTRY_CODE":"US","EPOCH":"2022-06-15T17:13:42.733344","ELEMENT_SET_NO":"999","RA_OF_ASC_NODE":"170.2390","TLE_LINE2":"2 48096  53.0531 170.2390 0001695  56.9700 303.1451 15.06402469 66989","ECCENTRICITY":"0.00016950","PERIOD":"95.592","ARG_OF_PERICENTER":"56.9700","TIME_SYSTEM":"UTC","FILE":"3496999","INCLINATION":"53.0531","LAUNCH_DATE":"2021-04-07","TLE_LINE1":"1 48096U 21027E   22166.71785571 -.00000463  00000-0 -12184-4 0  9992","NORAD_CAT_ID":"48096","BSTAR":"-0.00001218400000","RCS_SIZE":"LARGE","OBJECT_TYPE":"PAYLOAD","CLASSIFICATION_TYPE":"U","MEAN_ELEMENT_THEORY":"SGP4","MEAN_MOTION_DDOT":"0.0000000000000","SITE":"AFETR","GP_ID":"206237202","APOAPSIS":"548.380","OBJECT_NAME":"STARLINK-2417"},{"SITE":"AFETR","GP_ID":"206287207","APOAPSIS":"548.331","OBJECT_NAME":"STARLINK-2418","OBJECT_TYPE":"PAYLOAD","CLASSIFICATION_TYPE":"U","MEAN_ELEMENT_THEORY":"SGP4","MEAN_MOTION_DDOT":"0.0000000000000","TLE_LINE1":"1 48097U 21027F   22166.96296158 -.00000279  00000-0  17181-6 0  9996","NORAD_CAT_ID":"48097","BSTAR":"0.00000017181000","RCS_SIZE":"LARGE","FILE":"3497002","INCLINATION":"53.0537","LAUNCH_DATE":"2021-04-07","EPOCH":"2022-06-15T23:06:39.880512","COUNTRY_CODE":"US","ELEMENT_SET_NO":"999","RA_OF_ASC_NODE":"149.1481","PERIOD":"95.592","TLE_LINE2":"2 48097  53.0537 149.1481 0001636  71.6570 288.4597 15.06405084 67305","ECCENTRICITY":"0.00016360","ARG_OF_PERICENTER":"71.6570","TIME_SYSTEM":"UTC","PERIAPSIS":"546.065","MEAN_MOTION":"15.06405084","MEAN_MOTION_DOT":"-0.00000279","DECAY_DATE":null,"EPHEMERIS_TYPE":"0","REV_AT_EPOCH":"6730","MEAN_ANOMALY":"288.4597","REF_FRAME":"TEME","SEMIMAJOR_AXIS":"6925.333","CENTER_NAME":"EARTH","OBJECT_ID":"2021-027F"},{"INCLINATION":"53.0541","FILE":"3496999","LAUNCH_DATE":"2021-04-07","TIME_SYSTEM":"UTC","TLE_LINE2":"2 48098  53.0541 160.4427 0001633  56.8810 303.2335 15.06386530 67115","ECCENTRICITY":"0.00016330","PERIOD":"95.593","ARG_OF_PERICENTER":"56.8810","ELEMENT_SET_NO":"999","COUNTRY_CODE":"US","EPOCH":"2022-06-15T16:11:21.061248","RA_OF_ASC_NODE":"160.4427","REF_FRAME":"TEME","SEMIMAJOR_AXIS":"6925.390","EPHEMERIS_TYPE":"0","DECAY_DATE":null,"PERIAPSIS":"546.124","MEAN_MOTION_DOT":"-0.00000249","MEAN_MOTION":"15.06386530","MEAN_ANOMALY":"303.2335","REV_AT_EPOCH":"6711","CENTER_NAME":"EARTH","OBJECT_ID":"2021-027G","OBJECT_NAME":"STARLINK-2421","GP_ID":"206236201","SITE":"AFETR","APOAPSIS":"548.386","MEAN_MOTION_DDOT":"0.0000000000000","MEAN_ELEMENT_THEORY":"SGP4","OBJECT_TYPE":"PAYLOAD","CLASSIFICATION_TYPE":"U","BSTAR":"0.00000215150000","RCS_SIZE":"LARGE","NORAD_CAT_ID":"48098","TLE_LINE1":"1 48098U 21027G   22166.67454932 -.00000249  00000-0  21515-5 0  9993"},{"OBJECT_NAME":"STARLINK-2428","APOAPSIS":"548.424","SITE":"AFETR","GP_ID":"206236451","MEAN_ELEMENT_THEORY":"SGP4","MEAN_MOTION_DDOT":"0.0000000000000","CLASSIFICATION_TYPE":"U","OBJECT_TYPE":"PAYLOAD","RCS_SIZE":"LARGE","BSTAR":"0.00016088000000","TLE_LINE1":"1 48099U 21027H   22166.72893523  .00002116  00000-0  16088-3 0  9994","NORAD_CAT_ID":"48099","LAUNCH_DATE":"2021-04-07","FILE":"3496999","INCLINATION":"53.0537","PERIOD":"95.592","TLE_LINE2":"2 48099  53.0537 170.1956 0001775  62.1406 297.9763 15.06405982 66985","ECCENTRICITY":"0.00017750","ARG_OF_PERICENTER":"62.1406","TIME_SYSTEM":"UTC","RA_OF_ASC_NODE":"170.1956","EPOCH":"2022-06-15T17:29:40.003872","COUNTRY_CODE":"US","ELEMENT_SET_NO":"999","SEMIMAJOR_AXIS":"6925.330","REF_FRAME":"TEME","REV_AT_EPOCH":"6698","MEAN_ANOMALY":"297.9763","MEAN_MOTION":"15.06405982","PERIAPSIS":"545.966","MEAN_MOTION_DOT":"0.00002116","DECAY_DATE":null,"EPHEMERIS_TYPE":"0","OBJECT_ID":"2021-027H","CENTER_NAME":"EARTH"},{"MEAN_MOTION_DDOT":"0.0000000000000","MEAN_ELEMENT_THEORY":"SGP4","OBJECT_TYPE":"PAYLOAD","CLASSIFICATION_TYPE":"U","OBJECT_NAME":"STARLINK-2430","GP_ID":"206288952","SITE":"AFETR","APOAPSIS":"548.439","BSTAR":"0.00006687400000","RCS_SIZE":"MEDIUM","NORAD_CAT_ID":"48100","TLE_LINE1":"1 48100U 21027J   22166.95558608  .00000715  00000-0  66874-4 0  9996","TIME_SYSTEM":"UTC","TLE_LINE2":"2 48100  53.0540 149.1804 0001810  57.3903 302.7261 15.06409201 67301","ECCENTRICITY":"0.00018100","PERIOD":"95.592","ARG_OF_PERICENTER":"57.3903","ELEMENT_SET_NO":"999","COUNTRY_CODE":"US","EPOCH":"2022-06-15T22:56:02.637312","RA_OF_ASC_NODE":"149.1804","INCLINATION":"53.0540","FILE":"3497002","LAUNCH_DATE":"2021-04-07","CENTER_NAME":"EARTH","OBJECT_ID":"2021-027J","REF_FRAME":"TEME","SEMIMAJOR_AXIS":"6925.320","EPHEMERIS_TYPE":"0","DECAY_DATE":null,"PERIAPSIS":"545.932","MEAN_MOTION":"15.06409201","MEAN_MOTION_DOT":"0.00000715","REV_AT_EPOCH":"6730","MEAN_ANOMALY":"302.7261"},{"OBJECT_NAME":"STARLINK-2436","APOAPSIS":"548.333","GP_ID":"206287708","SITE":"AFETR","MEAN_MOTION_DDOT":"0.0000000000000","MEAN_ELEMENT_THEORY":"SGP4","OBJECT_TYPE":"PAYLOAD","CLASSIFICATION_TYPE":"U","RCS_SIZE":"LARGE","BSTAR":"-0.00001620700000","NORAD_CAT_ID":"48101","TLE_LINE1":"1 48101U 21027K   22167.00533195 -.00000523  00000-0 -16207-4 0  9992","LAUNCH_DATE":"2021-04-07","INCLINATION":"53.0548","FILE":"3497002","TIME_SYSTEM":"UTC","PERIOD":"95.592","TLE_LINE2":"2 48101  53.0548 158.9597 0001626  58.9327 301.1822 15.06402224 67178","ARG_OF_PERICENTER":"58.9327","ECCENTRICITY":"0.00016260","RA_OF_ASC_NODE":"158.9597","ELEMENT_SET_NO":"999","EPOCH":"2022-06-16T00:07:40.680480","COUNTRY_CODE":"US","SEMIMAJOR_AXIS":"6925.342","REF_FRAME":"TEME","MEAN_ANOMALY":"301.1822","REV_AT_EPOCH":"6717","DECAY_DATE":null,"EPHEMERIS_TYPE":"0","PERIAPSIS":"546.081","MEAN_MOTION":"15.06402224","MEAN_MOTION_DOT":"-0.00000523","OBJECT_ID":"2021-027K","CENTER_NAME":"EARTH"},{"MEAN_ELEMENT_THEORY":"SGP4","MEAN_MOTION_DDOT":"0.0000000000000","OBJECT_TYPE":"PAYLOAD","CLASSIFICATION_TYPE":"U","OBJECT_NAME":"STARLINK-2437","SITE":"AFETR","GP_ID":"206287457","APOAPSIS":"548.473","BSTAR":"-0.00006577300000","RCS_SIZE":"LARGE","TLE_LINE1":"1 48102U 21027L   22166.98140461 -.00001261  00000-0 -65773-4 0  9991","NORAD_CAT_ID":"48102","ECCENTRICITY":"0.00017910","TLE_LINE2":"2 48102  53.0557 149.0666 0001791  61.1915 298.9253 15.06393737 67303","PERIOD":"95.593","ARG_OF_PERICENTER":"61.1915","TIME_SYSTEM":"UTC","COUNTRY_CODE":"US","EPOCH":"2022-06-15T23:33:13.358304","ELEMENT_SET_NO":"999","RA_OF_ASC_NODE":"149.0666","FILE":"3497002","INCLINATION":"53.0557","LAUNCH_DATE":"2021-04-07","CENTER_NAME":"EARTH","OBJECT_ID":"2021-027L","REF_FRAME":"TEME","SEMIMAJOR_AXIS":"6925.368","MEAN_MOTION":"15.06393737","PERIAPSIS":"545.992","MEAN_MOTION_DOT":"-0.00001261","EPHEMERIS_TYPE":"0","DECAY_DATE":null,"MEAN_ANOMALY":"298.9253","REV_AT_EPOCH":"6730"},{"ELEMENT_SET_NO":"999","COUNTRY_CODE":"US","EPOCH":"2022-06-15T22:12:14.432256","RA_OF_ASC_NODE":"149.3266","TIME_SYSTEM":"UTC","TLE_LINE2":"2 48103  53.0549 149.3266 0001789  68.2381 291.8798 15.06402214 67291","ARG_OF_PERICENTER":"68.2381","PERIOD":"95.592","ECCENTRICITY":"0.00017890","INCLINATION":"53.0549","FILE":"3497002","LAUNCH_DATE":"2021-04-07","CENTER_NAME":"EARTH","OBJECT_ID":"2021-027M","DECAY_DATE":null,"EPHEMERIS_TYPE":"0","MEAN_MOTION_DOT":"0.00000512","PERIAPSIS":"545.968","MEAN_MOTION":"15.06402214","REV_AT_EPOCH":"6729","MEAN_ANOMALY":"291.8798","REF_FRAME":"TEME","SEMIMAJOR_AXIS":"6925.342","CLASSIFICATION_TYPE":"U","OBJECT_TYPE":"PAYLOAD","MEAN_MOTION_DDOT":"0.0000000000000","MEAN_ELEMENT_THEORY":"SGP4","GP_ID":"206288705","SITE":"AFETR","APOAPSIS":"548.446","OBJECT_NAME":"STARLINK-2438","NORAD_CAT_ID":"48103","TLE_LINE1":"1 48103U 21027M   22166.92516704  .00000512  00000-0  53302-4 0  9994","BSTAR":"0.00005330200000","RCS_SIZE":"LARGE"},{"TIME_SYSTEM":"UTC","ARG_OF_PERICENTER":"66.7149","TLE_LINE2":"2 48104  53.0543 155.4675 0001809  66.7149 293.4030 15.06388404 67196","PERIOD":"95.593","ECCENTRICITY":"0.00018090","RA_OF_ASC_NODE":"155.4675","ELEMENT_SET_NO":"999","EPOCH":"2022-06-15T16:04:03.446976","COUNTRY_CODE":"US","LAUNCH_DATE":"2021-04-07","INCLINATION":"53.0543","FILE":"3496999","OBJECT_ID":"2021-027N","CENTER_NAME":"EARTH","SEMIMAJOR_AXIS":"6925.384","REF_FRAME":"TEME","REV_AT_EPOCH":"6719","MEAN_ANOMALY":"293.4030","DECAY_DATE":null,"EPHEMERIS_TYPE":"0","MEAN_MOTION_DOT":"-0.00001054","PERIAPSIS":"545.996","MEAN_MOTION":"15.06388404","MEAN_MOTION_DDOT":"0.0000000000000","MEAN_ELEMENT_THEORY":"SGP4","CLASSIFICATION_TYPE":"U","OBJECT_TYPE":"PAYLOAD","OBJECT_NAME":"STARLINK-2439","APOAPSIS":"548.502","GP_ID":"206237203","SITE":"AFETR","RCS_SIZE":"LARGE","BSTAR":"-0.00005185300000","NORAD_CAT_ID":"48104","TLE_LINE1":"1 48104U 21027N   22166.66948434 -.00001054  00000-0 -51853-4 0  9998"},{"CENTER_NAME":"EARTH","OBJECT_ID":"2021-027P","MEAN_MOTION_DOT":"-0.00000852","PERIAPSIS":"545.786","MEAN_MOTION":"15.06400350","DECAY_DATE":null,"EPHEMERIS_TYPE":"0","MEAN_ANOMALY":"296.5193","REV_AT_EPOCH":"6800","REF_FRAME":"TEME","SEMIMAJOR_AXIS":"6925.347","EPOCH":"2022-06-15T23:23:55.051008","COUNTRY_CODE":"US","ELEMENT_SET_NO":"999","RA_OF_ASC_NODE":"99.0904","ARG_OF_PERICENTER":"63.6008","TLE_LINE2":"2 48105  53.0550  99.0904 0002060  63.6008 296.5193 15.06400350 68003","PERIOD":"95.592","ECCENTRICITY":"0.00020600","TIME_SYSTEM":"UTC","FILE":"3497002","INCLINATION":"53.0550","LAUNCH_DATE":"2021-04-07","TLE_LINE1":"1 48105U 21027P   22166.97494272 -.00000852  00000-0 -38277-4 0  9999","NORAD_CAT_ID":"48105","BSTAR":"-0.00003827700000","RCS_SIZE":"LARGE","CLASSIFICATION_TYPE":"U","OBJECT_TYPE":"PAYLOAD","MEAN_ELEMENT_THEORY":"SGP4","MEAN_MOTION_DDOT":"0.0000000000000","SITE":"AFETR","GP_ID":"206287208","APOAPSIS":"548.639","OBJECT_NAME":"STARLINK-2440"}];
